ONEWEB-0456             
1 51646U 22012AA  23304.52923460  .00004104  00000+0  11719-1 0  9990
2 51646  87.8922 226.8320 0001913  62.8757 297.2565 13.10354842 84955
ONEWEB-0457             
1 51647U 22012AB  23304.20102547 -.00000572  00000+0 -16763-2 0  9993
2 51647  87.8918 226.9002 0002092  83.3654 276.7711 13.10372429 84925
ONEWEB-0458             
1 51648U 22012AC  23304.52759833 -.00000052  00000+0 -18618-3 0  9990
2 51648  87.8923 226.8486 0002043  68.1039 292.0305 13.10376594 84928
ONEWEB-0461             
1 51649U 22012AD  23304.16656927  .00000192  00000+0  46091-3 0  9990
2 51649  87.9246 196.6741 0001897  78.6095 281.5250 13.17653015 88750
ONEWEB-0463             
1 51650U 22012AE  23304.14969406  .00000151  00000+0  35558-3 0  9990
2 51650  87.9252 196.7129 0001758  79.9114 280.2216 13.17648098 88542
ONEWEB-0464             
1 51651U 22012AF  23304.52432693 -.00000618  00000+0 -18073-2 0  9998
2 51651  87.8922 226.8378 0001658  58.0491 302.0798 13.10374323 84940
ONEWEB-0468             
1 51652U 22012AG  23304.53085032  .00007656  00000+0  21889-1 0  9996
2 51652  87.8922 226.8296 0002345  67.2132 292.9242 13.10340697 84913
ONEWEB-0473             
1 51653U 22012AH  23303.82898973 -.00000430  00000+0 -12682-2 0  9991
2 51653  87.8912 226.9723 0001912  67.2979 292.8350 13.10376183 83532
